[{"OBJECT_NAME":"YAOGAN-36 02B","OBJECT_ID":"2022-133B","EPOCH":"2026-03-09T22:42:31.775904","MEAN_MOTION":15.30199518,"ECCENTRICITY":0.00056841,"INCLINATION":34.9983,"RA_OF_ASC_NODE":22.5268,"ARG_OF_PERICENTER":273.0351,"MEAN_ANOMALY":86.9715,"EPHEMERIS_TYPE":0,"CLASSIFICATION_TYPE":"U","NORAD_CAT_ID":54043,"ELEMENT_SET_NO":999,"REV_AT_EPOCH":18962,"BSTAR":0.00051218814,"MEAN_MOTION_DOT":0.00015352,"MEAN_MOTION_DDOT":0},{"OBJECT_NAME":"STARLINK-31248","OBJECT_ID":"2024-017Q","EPOCH":"2026-03-09T17:16:54.591456","MEAN_MOTION":15.30189376,"ECCENTRICITY":0.000143,"INCLINATION":53.1607,"RA_OF_ASC_NODE":216.74,"ARG_OF_PERICENTER":90.1158,"MEAN_ANOMALY":270.0006,"EPHEMERIS_TYPE":0,"CLASSIFICATION_TYPE":"U","NORAD_CAT_ID":58840,"ELEMENT_SET_NO":999,"REV_AT_EPOCH":11999,"BSTAR":-8.049993e-6,"MEAN_MOTION_DOT":-5.98e-6,"MEAN_MOTION_DDOT":0}]
